SENTINEL-6              
1 46984U 20086A   24108.02011900 -.00000037  00000+0  10347-3 0  9993
2 46984  66.0435 338.3163 0007785 271.3168  88.6955 12.80929950158997
